NORAD_CAT_ID,OBJECT_NAME,OBJECT_TYPE,EPOCH,MEAN_MOTION,ECCENTRICITY,INCLINATION,RA_OF_ASC_NODE,ARG_OF_PERICENTER,MEAN_ANOMALY,BSTAR,MEAN_MOTION_DOT,MEAN_MOTION_DDOT,TLE_LINE0,TLE_LINE1,TLE_LINE2,SEMIMAJOR_AXIS,PERIOD,APOGEE,PERIGEE,DECAYED
53546.0,STARLINK-4477,PAYLOAD,2024-02-14 03:55:17,15.08843678,0.0001318,53.2163,200.8502,104.6475,255.4663,7.5741e-05,9.18e-06,0.0,0 STARLINK-4477,1 53546U 22101V   24045.16339277  .00000918  00000-0  75741-4 0  9998,2 53546  53.2163 200.8502 0001318 104.6475 255.4663 15.08843678 82542,6917.869,95.437,540.646,538.822,0.0
53546.0,STARLINK-4477,PAYLOAD,2024-02-14 13:27:35,15.08848894,0.0001429,53.2166,199.0652,113.9826,246.1316,2.5877e-06,-2.47e-06,0.0,0 STARLINK-4477,1 53546U 22101V   24045.56082911 -.00000247  00000-0  25877-5 0  9994,2 53546  53.2166 199.0652 0001429 113.9826 246.1316 15.08848894 82600,6917.853,95.437,540.707,538.73,0.0
53546.0,STARLINK-4477,PAYLOAD,2024-02-14 16:38:21,15.08852591,0.0001499,53.2169,198.47,113.5748,246.5402,6.3907e-05,7.3e-06,0.0,0 STARLINK-4477,1 53546U 22101V   24045.69330701  .00000730  00000-0  63907-4 0  9992,2 53546  53.2169 198.4700 0001499 113.5748 246.5402 15.08852591 82627,6917.842,95.437,540.744,538.67,0.0
53546.0,STARLINK-4477,PAYLOAD,2024-02-15 10:07:37,15.08835441,0.0001343,53.2165,195.2001,93.5817,266.5328,0.00014544,2.027e-05,0.0,0 STARLINK-4477,1 53546U 22101V   24046.42195862  .00002027  00000-0  14544-3 0  9994,2 53546  53.2165 195.2001 0001343  93.5817 266.5328 15.08835441 82730,6917.894,95.438,540.688,538.83,0.0
53546.0,STARLINK-4477,PAYLOAD,2024-02-15 14:53:46,15.08836569,0.0001343,53.2159,194.3088,93.0594,267.0552,0.0001356,1.871e-05,0.0,0 STARLINK-4477,1 53546U 22101V   24046.62067852  .00001871  00000-0  13560-3 0  9996,2 53546  53.2159 194.3088 0001343  93.0594 267.0552 15.08836569 82765,6917.891,95.438,540.685,538.827,0.0
53546.0,STARLINK-4477,PAYLOAD,2024-02-15 19:39:55,15.08839827,0.0001377,53.2164,193.4168,93.104,267.011,0.00012685,1.731e-05,0.0,0 STARLINK-4477,1 53546U 22101V   24046.81939764  .00001731  00000-0  12685-3 0  9999,2 53546  53.2164 193.4168 0001377  93.1040 267.0110 15.08839827 82797,6917.881,95.438,540.699,538.793,0.0
53546.0,STARLINK-4477,PAYLOAD,2024-02-16 14:44:33,15.08847848,0.0001452,53.2163,189.8484,95.4172,264.6985,0.00019806,2.866e-05,0.0,0 STARLINK-4477,1 53546U 22101V   24047.61427417  .00002866  00000-0  19806-3 0  9997,2 53546  53.2163 189.8484 0001452  95.4172 264.6985 15.08847848 82910,6917.856,95.437,540.726,538.717,0.0
53546.0,STARLINK-4477,PAYLOAD,2024-02-16 16:19:56,15.08851696,0.0001467,53.2166,189.551,93.6498,266.4662,0.0003087,4.63e-05,0.0,0 STARLINK-4477,1 53546U 22101V   24047.68051344  .00004630  00000-0  30870-3 0  9991,2 53546  53.2166 189.5510 0001467  93.6498 266.4662 15.08851696 82926,6917.845,95.437,540.724,538.695,0.0
53546.0,STARLINK-4477,PAYLOAD,2024-02-17 14:35:20,15.08835947,0.0001643,53.2169,185.388,107.1256,252.9916,2.7583e-05,1.51e-06,0.0,0 STARLINK-4477,1 53546U 22101V   24048.60788151  .00000151  00000-0  27583-4 0  9999,2 53546  53.2169 185.3880 0001643 107.1256 252.9916 15.08835947 83061,6917.893,95.438,540.894,538.621,0.0
53546.0,STARLINK-4477,PAYLOAD,2024-02-17 16:10:44,15.08835743,0.0001698,53.2171,185.0928,107.4114,252.7064,3.6625e-05,2.95e-06,0.0,0 STARLINK-4477,1 53546U 22101V   24048.67412220  .00000295  00000-0  36625-4 0  9993,2 53546  53.2171 185.0928 0001698 107.4114 252.7064 15.08835743 83077,6917.893,95.438,540.933,538.584,0.0
53546.0,STARLINK-4477,PAYLOAD,2024-02-18 14:26:06,15.08875307,0.0001401,53.2155,180.9269,75.7591,284.3556,0.0010244,0.00016069,0.0,0 STARLINK-4477,1 53546U 22101V   24049.60146886  .00016069  00000-0  10244-2 0  9992,2 53546  53.2155 180.9269 0001401  75.7591 284.3556 15.08875307 83212,6917.772,95.435,540.607,538.668,0.0
53546.0,STARLINK-4477,PAYLOAD,2024-02-18 16:01:29,15.08884126,0.0001291,53.2153,180.6333,85.3596,274.7543,0.001323,0.00020856,0.0,0 STARLINK-4477,1 53546U 22101V   24049.66770656  .00020856  00000-0  13230-2 0  9993,2 53546  53.2153 180.6333 0001291  85.3596 274.7543 15.08884126 83227,6917.746,95.435,540.504,538.717,0.0
53546.0,STARLINK-4477,PAYLOAD,2024-02-19 01:33:48,15.0886028,0.000146,53.2159,178.8479,86.2632,273.8527,0.00011736,1.581e-05,0.0,0 STARLINK-4477,1 53546U 22101V   24050.06514614  .00001581  00000-0  11736-3 0  9993,2 53546  53.2159 178.8479 0001460  86.2632 273.8527 15.08860280 83285,6917.818,95.436,540.693,538.673,0.0
53546.0,STARLINK-4477,PAYLOAD,2024-02-19 14:16:54,15.08830168,0.0001511,53.2156,176.4703,94.1766,265.9399,-0.00021301,-3.676e-05,0.0,0 STARLINK-4477,1 53546U 22101V   24050.59507392 -.00003676  00000-0 -21301-3 0  9994,2 53546  53.2156 176.4703 0001511  94.1766 265.9399 15.08830168 83369,6917.91,95.438,540.821,538.73,0.0
53546.0,STARLINK-4477,PAYLOAD,2024-02-19 17:27:41,15.08822334,0.0001341,53.2153,175.8756,96.4339,263.6806,0.0016689,0.00026359,0.0,0 STARLINK-4477,1 53546U 22101V   24050.72755831  .00026359  00000-0  16689-2 0  9995,2 53546  53.2153 175.8756 0001341  96.4339 263.6806 15.08822334 83385,6917.934,95.439,540.727,538.872,0.0
53546.0,STARLINK-4477,PAYLOAD,2024-02-20 01:24:37,15.08822885,0.0001288,53.2161,174.3873,91.2483,268.8657,0.0012067,0.0001896,0.0,0 STARLINK-4477,1 53546U 22101V   24051.05876391  .00018960  00000-0  12067-2 0  9992,2 53546  53.2161 174.3873 0001288  91.2483 268.8657 15.08822885 83439,6917.933,95.439,540.689,538.907,0.0
53546.0,STARLINK-4477,PAYLOAD,2024-02-20 14:07:42,15.08831514,0.0001284,53.2144,172.0093,88.3682,271.7457,0.00085962,0.00013416,0.0,0 STARLINK-4477,1 53546U 22101V   24051.58868896  .00013416  00000-0  85962-3 0  9997,2 53546  53.2144 172.0093 0001284  88.3682 271.7457 15.08831514 83512,6917.906,95.438,540.66,538.883,0.0
53546.0,STARLINK-4477,PAYLOAD,2024-02-20 15:43:05,15.08836644,0.0001296,53.2148,171.7115,93.048,267.066,0.00086849,0.0001356,0.0,0 STARLINK-4477,1 53546U 22101V   24051.65492851  .00013560  00000-0  86849-3 0  9994,2 53546  53.2148 171.7115 0001296  93.0480 267.0660 15.08836644 83523,6917.891,95.438,540.652,538.859,0.0
53546.0,STARLINK-4477,PAYLOAD,2024-02-21 13:58:29,15.08859116,0.000137,53.2153,167.5502,82.7748,277.34,0.00083534,0.00013038,0.0,0 STARLINK-4477,1 53546U 22101V   24052.58228425  .00013038  00000-0  83534-3 0  9999,2 53546  53.2153 167.5502 0001370  82.7748 277.3400 15.08859116 83667,6917.822,95.436,540.635,538.739,0.0
53546.0,STARLINK-4477,PAYLOAD,2024-02-22 12:13:54,15.08812552,0.0001244,53.2154,163.3831,89.2953,270.8182,8.6146e-05,1.082e-05,0.0,0 STARLINK-4477,1 53546U 22101V   24053.50966304  .00001082  00000-0  86146-4 0  9996,2 53546  53.2154 163.3831 0001244  89.2953 270.8182 15.08812552 83801,6917.964,95.439,540.69,538.969,0.0
53546.0,STARLINK-4477,PAYLOAD,2024-02-22 13:49:18,15.08811993,0.0001304,53.2166,163.0873,89.2388,270.8753,-0.00027863,-4.716e-05,0.0,0 STARLINK-4477,1 53546U 22101V   24053.57590485 -.00004716  00000-0 -27863-3 0  9995,2 53546  53.2166 163.0873 0001304  89.2388 270.8753 15.08811993 83819,6917.966,95.439,540.733,538.929,0.0
53546.0,STARLINK-4477,PAYLOAD,2024-02-23 12:04:40,15.08874058,0.0001523,53.2171,158.9255,99.9405,260.1759,0.00078767,0.00012282,0.0,0 STARLINK-4477,1 53546U 22101V   24054.50324187  .00012282  00000-0  78767-3 0  9997,2 53546  53.2171 158.9255 0001523  99.9405 260.1759 15.08874058 83957,6917.776,95.435,540.695,538.588,0.0
53546.0,STARLINK-4477,PAYLOAD,2024-02-23 13:40:03,15.08877897,0.0001382,53.217,158.6281,83.0039,277.111,0.00086763,0.00013562,0.0,0 STARLINK-4477,1 53546U 22101V   24054.56948064  .00013562  00000-0  86763-3 0  9996,2 53546  53.2170 158.6281 0001382  83.0039 277.1110 15.08877897 83966,6917.765,95.435,540.586,538.674,0.0
53546.0,STARLINK-4477,PAYLOAD,2024-02-24 11:55:27,15.08853171,0.0001092,53.2166,154.4641,116.1843,243.9261,0.00021461,3.131e-05,0.0,0 STARLINK-4477,1 53546U 22101V   24055.49684410  .00003131  00000-0  21461-3 0  9996,2 53546  53.2166 154.4641 0001092 116.1843 243.9261 15.08853171 84108,6917.84,95.437,540.461,538.95,0.0
53546.0,STARLINK-4477,PAYLOAD,2024-02-24 13:30:50,15.08846825,0.0001331,53.217,154.1682,91.479,268.6354,7.0878e-05,8.4e-06,0.0,0 STARLINK-4477,1 53546U 22101V   24055.56308704  .00000840  00000-0  70878-4 0  9994,2 53546  53.2170 154.1682 0001331  91.4790 268.6354 15.08846825 84113,6917.86,95.437,540.645,538.804,0.0
53546.0,STARLINK-4477,PAYLOAD,2024-02-25 13:21:36,15.08853618,0.000148,53.2174,149.7097,94.8267,265.2894,-0.00016883,-2.975e-05,0.0,0 STARLINK-4477,1 53546U 22101V   24056.55667690 -.00002975  00000-0 -16883-3 0  9994,2 53546  53.2174 149.7097 0001480  94.8267 265.2894 15.08853618 84264,6917.839,95.437,540.728,538.68,0.0
53546.0,STARLINK-4477,PAYLOAD,2024-02-25 16:32:22,15.08858172,0.0001357,53.2164,149.1121,84.8165,275.2982,-7.0683e-05,-1.413e-05,0.0,0 STARLINK-4477,1 53546U 22101V   24056.68915390 -.00001413  00000-0 -70683-4 0  9996,2 53546  53.2164 149.1121 0001357  84.8165 275.2982 15.08858172 84285,6917.825,95.436,540.629,538.751,0.0
53546.0,STARLINK-4477,PAYLOAD,2024-02-25 22:53:55,15.08849407,0.0001285,53.2161,147.9203,72.9097,287.2036,-0.0001356,-2.446e-05,0.0,0 STARLINK-4477,1 53546U 22101V   24056.95411506 -.00002446  00000-0 -13560-3 0  9993,2 53546  53.2161 147.9203 0001285  72.9097 287.2036 15.08849407 84320,6917.852,95.437,540.606,538.828,0.0
53546.0,STARLINK-4477,PAYLOAD,2024-02-26 11:37:01,15.08840223,0.0001597,53.2161,145.5415,78.6412,281.476,0.00011034,1.468e-05,0.0,0 STARLINK-4477,1 53546U 22101V   24057.48404375  .00001468  00000-0  11034-3 0  9993,2 53546  53.2161 145.5415 0001597  78.6412 281.4760 15.08840223 84405,6917.88,95.438,540.849,538.64,0.0
53546.0,STARLINK-4477,PAYLOAD,2024-02-26 13:12:24,15.08844115,0.0001574,53.2167,145.2465,81.383,278.7341,0.00017626,2.519e-05,0.0,0 STARLINK-4477,1 53546U 22101V   24057.55028183  .00002519  00000-0  17626-3 0  9991,2 53546  53.2167 145.2465 0001574  81.3830 278.7341 15.08844115 84412,6917.868,95.437,540.822,538.644,0.0
